start=new Date('2022-01-12T00:00:00.000Z').valueOf();
sats=[{"OBJECT_NAME":"STARLINK-2388","PERIAPSIS":"545.798","TIME_SYSTEM":"UTC","SEMIMAJOR_AXIS":"6925.361","MEAN_MOTION":"15.06395922","APOAPSIS":"548.654","RA_OF_ASC_NODE":"195.7289","GP_ID":"193692498","ARG_OF_PERICENTER":"74.5230","MEAN_ELEMENT_THEORY":"SGP4","INCLINATION":"53.0527","ECCENTRICITY":"0.00020620","REF_FRAME":"TEME","MEAN_MOTION_DOT":"0.00000749","COUNTRY_CODE":"US","TLE_LINE2":"2 47807  53.0527 195.7289 0002062  74.5230 285.5986 15.06395922 48223","BSTAR":"0.00006922900000","LAUNCH_DATE":"2021-03-11","EPOCH":"2022-01-11T18:56:57.896736","SITE":"AFETR","CENTER_NAME":"EARTH","MEAN_ANOMALY":"285.5986","CLASSIFICATION_TYPE":"U","ELEMENT_SET_NO":"999","FILE":"3269987","OBJECT_TYPE":"PAYLOAD","OBJECT_ID":"2021-018W","NORAD_CAT_ID":"47807","REV_AT_EPOCH":"4822","EPHEMERIS_TYPE":"0","PERIOD":"95.592","RCS_SIZE":"LARGE","TLE_LINE1":"1 47807U 21018W   22011.78955899  .00000749  00000-0  69229-4 0  9996","DECAY_DATE":null,"MEAN_MOTION_DDOT":"0.0000000000000"},{"FILE":"3269987","OBJECT_ID":"2021-018X","OBJECT_TYPE":"PAYLOAD","MEAN_MOTION_DDOT":"0.0000000000000","DECAY_DATE":null,"TLE_LINE1":"1 47808U 21018X   22011.68586835 -.00000880  00000-0 -40155-4 0  9991","RCS_SIZE":"LARGE","EPHEMERIS_TYPE":"0","NORAD_CAT_ID":"47808","REV_AT_EPOCH":"4792","PERIOD":"95.592","LAUNCH_DATE":"2021-03-11","EPOCH":"2022-01-11T16:27:39.025440","BSTAR":"-0.00004015500000","TLE_LINE2":"2 47808  53.0544 221.2157 0002229  73.1225 287.0009 15.06397292 47927","CENTER_NAME":"EARTH","SITE":"AFETR","ELEMENT_SET_NO":"999","CLASSIFICATION_TYPE":"U","MEAN_ANOMALY":"287.0009","MEAN_ELEMENT_THEORY":"SGP4","ARG_OF_PERICENTER":"73.1225","INCLINATION":"53.0544","GP_ID":"193692243","MEAN_MOTION_DOT":"-0.00000880","COUNTRY_CODE":"US","ECCENTRICITY":"0.00022290","REF_FRAME":"TEME","SEMIMAJOR_AXIS":"6925.357","OBJECT_NAME":"STARLINK-2389","PERIAPSIS":"545.678","TIME_SYSTEM":"UTC","RA_OF_ASC_NODE":"221.2157","APOAPSIS":"548.766","MEAN_MOTION":"15.06397292"},{"ARG_OF_PERICENTER":"72.0527","MEAN_ELEMENT_THEORY":"SGP4","INCLINATION":"53.0545","GP_ID":"193693499","COUNTRY_CODE":"US","MEAN_MOTION_DOT":"-0.00000762","ECCENTRICITY":"0.00022360","REF_FRAME":"TEME","SEMIMAJOR_AXIS":"6925.337","OBJECT_NAME":"STARLINK-2390","PERIAPSIS":"545.653","TIME_SYSTEM":"UTC","RA_OF_ASC_NODE":"225.5761","APOAPSIS":"548.750","MEAN_MOTION":"15.06403791","FILE":"3269987","OBJECT_TYPE":"PAYLOAD","OBJECT_ID":"2021-018Y","TLE_LINE1":"1 47809U 21018Y   22011.82362581 -.00000762  00000-0 -32204-4 0  9993","RCS_SIZE":"LARGE","MEAN_MOTION_DDOT":"0.0000000000000","DECAY_DATE":null,"REV_AT_EPOCH":"4787","NORAD_CAT_ID":"47809","EPHEMERIS_TYPE":"0","PERIOD":"95.592","LAUNCH_DATE":"2021-03-11","EPOCH":"2022-01-11T19:46:01.269984","TLE_LINE2":"2 47809  53.0545 225.5761 0002236  72.0527 288.0706 15.06403791 47879","BSTAR":"-0.00003220400000","CENTER_NAME":"EARTH","SITE":"AFETR","MEAN_ANOMALY":"288.0706","CLASSIFICATION_TYPE":"U","ELEMENT_SET_NO":"999"},{"APOAPSIS":"548.819","MEAN_MOTION":"15.06397099","RA_OF_ASC_NODE":"236.0775","TIME_SYSTEM":"UTC","PERIAPSIS":"545.626","OBJECT_NAME":"STARLINK-2391","SEMIMAJOR_AXIS":"6925.357","REF_FRAME":"TEME","ECCENTRICITY":"0.00023050","COUNTRY_CODE":"US","MEAN_MOTION_DOT":"-0.00000753","GP_ID":"193693743","INCLINATION":"53.0539","MEAN_ELEMENT_THEORY":"SGP4","ARG_OF_PERICENTER":"66.3012","CLASSIFICATION_TYPE":"U","ELEMENT_SET_NO":"999","MEAN_ANOMALY":"293.8219","SITE":"AFETR","CENTER_NAME":"EARTH","BSTAR":"-0.00003164700000","TLE_LINE2":"2 47810  53.0539 236.0775 0002305  66.3012 293.8219 15.06397099 47717","EPOCH":"2022-01-11T17:10:47.154720","LAUNCH_DATE":"2021-03-11","PERIOD":"95.592","EPHEMERIS_TYPE":"0","REV_AT_EPOCH":"4771","NORAD_CAT_ID":"47810","DECAY_DATE":null,"MEAN_MOTION_DDOT":"0.0000000000000","TLE_LINE1":"1 47810U 21018Z   22011.71582355 -.00000753  00000-0 -31647-4 0  9996","RCS_SIZE":"LARGE","OBJECT_ID":"2021-018Z","OBJECT_TYPE":"PAYLOAD","FILE":"3269987"},{"APOAPSIS":"548.742","MEAN_MOTION":"15.06407850","RA_OF_ASC_NODE":"205.5938","TIME_SYSTEM":"UTC","OBJECT_NAME":"STARLINK-2392","PERIAPSIS":"545.637","SEMIMAJOR_AXIS":"6925.324","REF_FRAME":"TEME","ECCENTRICITY":"0.00022420","MEAN_MOTION_DOT":"0.00001727","COUNTRY_CODE":"US","GP_ID":"193691999","INCLINATION":"53.0542","ARG_OF_PERICENTER":"76.3668","MEAN_ELEMENT_THEORY":"SGP4","MEAN_ANOMALY":"283.7571","ELEMENT_SET_NO":"999","CLASSIFICATION_TYPE":"U","SITE":"AFETR","CENTER_NAME":"EARTH","TLE_LINE2":"2 47811  53.0542 205.5938 0002242  76.3668 283.7571 15.06407850 48157","BSTAR":"0.00013481000000","EPOCH":"2022-01-11T19:43:22.262016","LAUNCH_DATE":"2021-03-11","PERIOD":"95.592","NORAD_CAT_ID":"47811","REV_AT_EPOCH":"4815","EPHEMERIS_TYPE":"0","RCS_SIZE":"LARGE","TLE_LINE1":"1 47811U 21018AA  22011.82178544  .00001727  00000-0  13481-3 0  9995","MEAN_MOTION_DDOT":"0.0000000000000","DECAY_DATE":null,"OBJECT_TYPE":"PAYLOAD","OBJECT_ID":"2021-018AA","FILE":"3269987"},{"PERIOD":"95.593","EPHEMERIS_TYPE":"0","REV_AT_EPOCH":"4765","NORAD_CAT_ID":"47812","MEAN_MOTION_DDOT":"0.0000000000000","DECAY_DATE":null,"RCS_SIZE":"LARGE","TLE_LINE1":"1 47812U 21018AB  22011.72688367 -.00000628  00000-0 -23247-4 0  9997","OBJECT_ID":"2021-018AB","OBJECT_TYPE":"PAYLOAD","FILE":"3269987","CLASSIFICATION_TYPE":"U","ELEMENT_SET_NO":"999","MEAN_ANOMALY":"291.6155","SITE":"AFETR","CENTER_NAME":"EARTH","BSTAR":"-0.00002324700000","TLE_LINE2":"2 47812  53.0552 236.0131 0002080  68.5056 291.6155 15.06389340 47650","EPOCH":"2022-01-11T17:26:42.749088","LAUNCH_DATE":"2021-03-11","REF_FRAME":"TEME","ECCENTRICITY":"0.00020800","MEAN_MOTION_DOT":"-0.00000628","COUNTRY_CODE":"US","GP_ID":"193692743","INCLINATION":"53.0552","MEAN_ELEMENT_THEORY":"SGP4","ARG_OF_PERICENTER":"68.5056","APOAPSIS":"548.687","RA_OF_ASC_NODE":"236.0131","MEAN_MOTION":"15.06389340","TIME_SYSTEM":"UTC","OBJECT_NAME":"STARLINK-2393","PERIAPSIS":"545.806","SEMIMAJOR_AXIS":"6925.381"},{"PERIOD":"95.592","NORAD_CAT_ID":"47813","REV_AT_EPOCH":"4815","EPHEMERIS_TYPE":"0","RCS_SIZE":"LARGE","TLE_LINE1":"1 47813U 21018AC  22011.84392570  .00001079  00000-0  91361-4 0  9990","MEAN_MOTION_DDOT":"0.0000000000000","DECAY_DATE":null,"OBJECT_TYPE":"PAYLOAD","OBJECT_ID":"2021-018AC","FILE":"3269987","MEAN_ANOMALY":"282.8188","CLASSIFICATION_TYPE":"U","ELEMENT_SET_NO":"999","CENTER_NAME":"EARTH","SITE":"AFETR","TLE_LINE2":"2 47813  53.0534 205.4971 0002146  77.3041 282.8188 15.06397381 48156","BSTAR":"0.00009136100000","EPOCH":"2022-01-11T20:15:15.180480","LAUNCH_DATE":"2021-03-11","REF_FRAME":"TEME","ECCENTRICITY":"0.00021460","COUNTRY_CODE":"US","MEAN_MOTION_DOT":"0.00001079","GP_ID":"193693000","INCLINATION":"53.0534","ARG_OF_PERICENTER":"77.3041","MEAN_ELEMENT_THEORY":"SGP4","RA_OF_ASC_NODE":"205.4971","APOAPSIS":"548.708","MEAN_MOTION":"15.06397381","TIME_SYSTEM":"UTC","PERIAPSIS":"545.735","OBJECT_NAME":"STARLINK-2394","SEMIMAJOR_AXIS":"6925.357"},{"REF_FRAME":"TEME","ECCENTRICITY":"0.00022550","MEAN_MOTION_DOT":"-0.00000891","COUNTRY_CODE":"US","GP_ID":"193693244","INCLINATION":"53.0540","ARG_OF_PERICENTER":"66.7482","MEAN_ELEMENT_THEORY":"SGP4","APOAPSIS":"548.756","MEAN_MOTION":"15.06406109","RA_OF_ASC_NODE":"225.3913","TIME_SYSTEM":"UTC","PERIAPSIS":"545.633","OBJECT_NAME":"STARLINK-2395","SEMIMAJOR_AXIS":"6925.330","PERIOD":"95.592","REV_AT_EPOCH":"4788","NORAD_CAT_ID":"47814","EPHEMERIS_TYPE":"0","TLE_LINE1":"1 47814U 21018AD  22011.86787290 -.00000891  00000-0 -40922-4 0  9990","RCS_SIZE":"MEDIUM","MEAN_MOTION_DDOT":"0.0000000000000","DECAY_DATE":null,"OBJECT_TYPE":"PAYLOAD","OBJECT_ID":"2021-018AD","FILE":"3269987","MEAN_ANOMALY":"293.3744","CLASSIFICATION_TYPE":"U","ELEMENT_SET_NO":"999","SITE":"AFETR","CENTER_NAME":"EARTH","TLE_LINE2":"2 47814  53.0540 225.3913 0002255  66.7482 293.3744 15.06406109 47886","BSTAR":"-0.00004092200000","EPOCH":"2022-01-11T20:49:44.218560","LAUNCH_DATE":"2021-03-11"},{"TIME_SYSTEM":"UTC","OBJECT_NAME":"STARLINK-2396","PERIAPSIS":"545.691","SEMIMAJOR_AXIS":"6925.356","APOAPSIS":"548.751","RA_OF_ASC_NODE":"220.5463","MEAN_MOTION":"15.06397527","GP_ID":"193692499","INCLINATION":"53.0532","MEAN_ELEMENT_THEORY":"SGP4","ARG_OF_PERICENTER":"70.1585","REF_FRAME":"TEME","ECCENTRICITY":"0.00022090","COUNTRY_CODE":"US","MEAN_MOTION_DOT":"0.00001200","BSTAR":"0.00009947300000","TLE_LINE2":"2 47815  53.0532 220.5463 0002209  70.1585 289.9642 15.06397527 47888","EPOCH":"2022-01-11T19:59:58.478208","LAUNCH_DATE":"2021-03-11","ELEMENT_SET_NO":"999","CLASSIFICATION_TYPE":"U","MEAN_ANOMALY":"289.9642","SITE":"AFETR","CENTER_NAME":"EARTH","OBJECT_ID":"2021-018AE","OBJECT_TYPE":"PAYLOAD","FILE":"3269987","PERIOD":"95.592","EPHEMERIS_TYPE":"0","REV_AT_EPOCH":"4788","NORAD_CAT_ID":"47815","MEAN_MOTION_DDOT":"0.0000000000000","DECAY_DATE":null,"RCS_SIZE":"LARGE","TLE_LINE1":"1 47815U 21018AE  22011.83331572  .00001200  00000-0  99473-4 0  9994"},{"MEAN_ANOMALY":"293.0441","ELEMENT_SET_NO":"999","CLASSIFICATION_TYPE":"U","CENTER_NAME":"EARTH","SITE":"AFETR","TLE_LINE2":"2 47816  53.0546 225.2079 0002334  67.0794 293.0441 15.06399622 47820","BSTAR":"0.00008862300000","EPOCH":"2022-01-11T21:48:06.499584","LAUNCH_DATE":"2021-03-11","PERIOD":"95.592","NORAD_CAT_ID":"47816","REV_AT_EPOCH":"4782","EPHEMERIS_TYPE":"0","RCS_SIZE":"LARGE","TLE_LINE1":"1 47816U 21018AF  22011.90840856  .00001038  00000-0  88623-4 0  9997","DECAY_DATE":null,"MEAN_MOTION_DDOT":"0.0000000000000","OBJECT_TYPE":"PAYLOAD","OBJECT_ID":"2021-018AF","FILE":"3269987","MEAN_MOTION":"15.06399622","APOAPSIS":"548.831","RA_OF_ASC_NODE":"225.2079","TIME_SYSTEM":"UTC","PERIAPSIS":"545.598","OBJECT_NAME":"STARLINK-2399","SEMIMAJOR_AXIS":"6925.350","REF_FRAME":"TEME","ECCENTRICITY":"0.00023340","MEAN_MOTION_DOT":"0.00001038","COUNTRY_CODE":"US","GP_ID":"193692244","INCLINATION":"53.0546","ARG_OF_PERICENTER":"67.0794","MEAN_ELEMENT_THEORY":"SGP4"}];
